NORAD_CAT_ID,OBJECT_NAME,OBJECT_TYPE,EPOCH,MEAN_MOTION,ECCENTRICITY,INCLINATION,RA_OF_ASC_NODE,ARG_OF_PERICENTER,MEAN_ANOMALY,BSTAR,MEAN_MOTION_DOT,MEAN_MOTION_DDOT,TLE_LINE0,TLE_LINE1,TLE_LINE2,SEMIMAJOR_AXIS,PERIOD,APOGEE,PERIGEE,DECAYED
52332.0,STARLINK-3831,PAYLOAD,2022-05-04 18:00:02,15.83328351,0.0001035,53.2174,52.4099,67.0482,343.2127,-0.0043772,-0.00877416,0.0,0 STARLINK-3831,1 52332U 22045B   22124.75002315 -.00877416  00000-0 -43772-2 0  9992,2 52332  53.2174  52.4099 0001035  67.0482 343.2127 15.83328351  3312,6699.1730000000025,90.948,321.731,320.344,0.0
52332.0,STARLINK-3831,PAYLOAD,2022-05-05 14:00:01,15.81753755,0.0001061,53.2174,48.2292,69.3287,51.2327,-0.0046942,-0.0087376,0.0,0 STARLINK-3831,1 52332U 22045B   22125.58334491 -.00873760  00000-0 -46942-2 0  9997,2 52332  53.2174  48.2292 0001061  69.3287  51.2327 15.81753755  3447,6703.618,91.038,326.194,324.772,0.0
52332.0,STARLINK-3831,PAYLOAD,2022-05-05 22:00:00,15.81126645,0.0001226,53.2176,46.5601,67.3901,151.9934,-0.0048553,-0.00877298,0.0,0 STARLINK-3831,1 52332U 22045B   22125.91667824 -.00877298  00000-0 -48553-2 0  9993,2 52332  53.2176  46.5601 0001226  67.3901 151.9934 15.81126645  1462,6705.39,91.074,328.0780000000001,326.433,0.0
52332.0,STARLINK-3831,PAYLOAD,2022-05-06 14:00:01,15.7986572,9.41e-05,53.2175,43.2245,84.4313,330.3318,-0.0051216,-0.00873191,0.0,0 STARLINK-3831,1 52332U 22045B   22126.58334491 -.00873191  00000-0 -51216-2 0  9996,2 52332  53.2175  43.2245 0000941  84.4313 330.3318 15.79865720  3607,6708.958000000001,91.147,331.454,330.191,0.0
52332.0,STARLINK-3831,PAYLOAD,2022-05-07 12:00:00,15.78139384,0.0001134,53.2175,38.6494,83.2613,145.2052,-0.0055853,-0.00879448,0.0,0 STARLINK-3831,1 52332U 22045B   22127.50001157 -.00879448  00000-0 -55853-2 0  9991,2 52332  53.2175  38.6494 0001134  83.2613 145.2052 15.78139384  3748,6713.85,91.247,336.476,334.9530000000001,0.0
52332.0,STARLINK-3831,PAYLOAD,2022-05-07 14:00:01,15.77977949,9.45e-05,53.2173,38.2337,85.3197,256.8387,-0.0055801,-0.0087286,0.0,0 STARLINK-3831,1 52332U 22045B   22127.58334491 -.00872860  00000-0 -55801-2 0  9993,2 52332  53.2173  38.2337 0000945  85.3197 256.8387 15.77977949  1730,6714.307,91.256,336.807,335.538,0.0
52332.0,STARLINK-3831,PAYLOAD,2022-05-07 22:00:00,15.773505800000002,0.0001039,53.2174,36.5744,73.7927,2.6497,-0.0057599,-0.00875602,0.0,0 STARLINK-3831,1 52332U 22045B   22127.91667824 -.00875602  00000-0 -57599-2 0  9992,2 52332  53.2174  36.5744 0001039  73.7927   2.6497 15.77350580  1781,6716.0880000000025,91.292,338.65,337.255,0.0
52332.0,STARLINK-3831,PAYLOAD,2022-05-08 14:00:01,15.76090544,0.0001109,53.2175,33.2568,93.8299,168.9172,-0.0060707,-0.0087267,0.0,0 STARLINK-3831,1 52332U 22045B   22128.58334491 -.00872670  00000-0 -60707-2 0  9994,2 52332  53.2175  33.2568 0001109  93.8299 168.9172 15.76090544  3916,6719.667,91.365,342.277,340.786,0.0
52332.0,STARLINK-3831,PAYLOAD,2022-05-08 22:00:00,15.75463434,0.0001013,53.2177,31.6023,76.6763,278.0866,-0.00627,-0.00876228,0.0,0 STARLINK-3831,1 52332U 22045B   22128.91667824 -.00876228  00000-0 -62700-2 0  9998,2 52332  53.2177  31.6023 0001013  76.6763 278.0866 15.75463434  1940,6721.45,91.402,343.996,342.634,0.0
52332.0,STARLINK-3831,PAYLOAD,2022-05-09 14:00:01,15.74204206,0.0001139,53.2171,28.2938,83.9972,92.5988,-0.0066212,-0.0087567,0.0,0 STARLINK-3831,1 52332U 22045B   22129.58335648 -.00875670  00000-0 -66212-2 0  9990,2 52332  53.2171  28.2938 0001139  83.9972  92.5988 15.74204206  4073,6725.034000000002,91.475,347.665,346.1330000000001,0.0
52332.0,STARLINK-3831,PAYLOAD,2022-05-09 22:00:00,15.73390704,0.0001250999999999,53.2173,26.6441,81.5823,184.7254,-0.0020116,-0.00276115,0.0,0 STARLINK-3831,1 52332U 22045B   22129.91667824 -.00276115  00000-0 -20116-2 0  9993,2 52332  53.2173  26.6441 0001251  81.5823 184.7254 15.73390704  4124,6727.352,91.522,350.05800000000005,348.375,0.0
52332.0,STARLINK-3831,PAYLOAD,2022-05-10 08:00:01,15.73311718,0.0001133,53.2136,24.5851,90.1105,17.5485,-0.00060007,-0.00084395,0.0,0 STARLINK-3831,1 52332U 22045B   22130.33334491 -.00084395  00000-0 -60007-3 0  9993,2 52332  53.2136  24.5851 0001133  90.1105  17.5485 15.73311718  4197,6727.5769999999975,91.527,350.204,348.67900000000014,0.0
52332.0,STARLINK-3831,PAYLOAD,2022-05-10 14:00:01,15.73246295,0.0001114,53.214,23.3461,99.6351,344.8074,-7.334e-06,-1.651e-05,0.0,0 STARLINK-3831,1 52332U 22045B   22130.58334491 -.00001651  00000-0 -73340-5 0  9990,2 52332  53.2140  23.3461 0001114  99.6351 344.8074 15.73246295  2209,6727.763000000001,91.53,350.37800000000016,348.879,0.0
52332.0,STARLINK-3831,PAYLOAD,2022-05-10 18:00:00,15.73227928,0.0001103,53.2141,22.5219,100.9216,207.9956,-0.00014401,-0.00020804,0.0,0 STARLINK-3831,1 52332U 22045B   22130.75001157 -.00020804  00000-0 -14401-3 0  9991,2 52332  53.2141  22.5219 0001103 100.9216 207.9956 15.73227928  2239,6727.816,91.532,350.423,348.93800000000016,0.0
52332.0,STARLINK-3831,PAYLOAD,2022-05-11 22:00:00,15.73197329,9.27e-05,53.2136,16.75,95.717,344.3945,0.00015444,0.00021107,0.0,0 STARLINK-3831,1 52332U 22045B   22131.91667824  .00021107  00000-0  15444-3 0  9992,2 52332  53.2136  16.7500 0000927  95.7170 344.3945 15.73197329  4444,6727.903,91.533,350.391,349.144,0.0
52332.0,STARLINK-3831,PAYLOAD,2022-05-12 14:00:01,15.73207285,0.0001037,53.2174,13.4457,101.8756,156.0049,-3.1842e-05,-5.087e-05,0.0,0 STARLINK-3831,1 52332U 22045B   22132.58334491 -.00005087  00000-0 -31842-4 0  9999,2 52332  53.2174  13.4457 0001037 101.8756 156.0049 15.73207285  1301,6727.874,91.533,350.43699999999984,349.042,0.0
52332.0,STARLINK-3831,PAYLOAD,2022-05-12 20:00:01,15.73248559,0.0001226,53.2141,12.2129,96.1155,138.6668,-0.00020213,-0.00028949,0.0,0 STARLINK-3831,1 52332U 22045B   22132.83334491 -.00028949  00000-0 -20213-3 0  9998,2 52332  53.2141  12.2129 0001226  96.1155 138.6668 15.73248559  4582,6727.757,91.53,350.44699999999995,348.797,0.0
52332.0,STARLINK-3831,PAYLOAD,2022-05-12 22:00:00,15.7324331,0.0001224,53.2139,11.800999999999998,92.2536,254.7757,-0.00023035,-0.00032881,0.0,0 STARLINK-3831,1 52332U 22045B   22132.91667824 -.00032881  00000-0 -23035-3 0  9991,2 52332  53.2139  11.8010 0001224  92.2536 254.7757 15.73243310  1307,6727.772,91.531,350.46,348.81300000000016,0.0
52332.0,STARLINK-3831,PAYLOAD,2022-05-13 14:00:01,15.73179885,0.0001134,53.2134,8.5,107.6118,57.3242,0.00020493,0.00028212,0.0,0 STARLINK-3831,1 52332U 22045B   22133.58334491  .00028212  00000-0  20493-3 0  9992,2 52332  53.2134   8.5000 0001134 107.6118  57.3242 15.73179885  1302,6727.953,91.534,350.58,349.055,0.0
52332.0,STARLINK-3831,PAYLOAD,2022-05-13 22:00:00,15.73183575,0.0001032,53.2135,6.8525,96.4134,157.4466,-0.00017369,-0.00024906,0.0,0 STARLINK-3831,1 52332U 22045B   22133.91667824 -.00024906  00000-0 -17369-3 0  9994,2 52332  53.2135   6.8525 0001032  96.4134 157.4466 15.73183575  4759,6727.941999999999,91.534,350.501,349.11300000000006,0.0
52332.0,STARLINK-3831,PAYLOAD,2022-05-14 14:00:01,15.73167594,0.0001122,53.2138,3.5514,105.2159,326.4513,0.00072127,0.00101697,0.0,0 STARLINK-3831,1 52332U 22045B   22134.58334491  .00101697  00000-0  72127-3 0  9993,2 52332  53.2138   3.5514 0001122 105.2159 326.4513 15.73167594  4866,6727.988,91.535,350.607,349.098,0.0
52332.0,STARLINK-3831,PAYLOAD,2022-05-14 22:00:00,15.73268351,0.0001159,53.2136,1.9038,91.8051,68.7977,-0.00036823,-0.00052129,0.0,0 STARLINK-3831,1 52332U 22045B   22134.91667824 -.00052129  00000-0 -36823-3 0  9999,2 52332  53.2136   1.9038 0001159  91.8051  68.7977 15.73268351  1307,6727.7,91.529,350.345,348.786,0.0
52332.0,STARLINK-3831,PAYLOAD,2022-05-15 06:00:00,15.73264139,0.0001116,53.213,0.2531,96.6067,152.9757,-0.00068743,-0.00096261,0.0,0 STARLINK-3831,1 52332U 22045B   22135.25001157 -.00096261  00000-0 -68743-3 0  9999,2 52332  53.2130   0.2531 0001116  96.6067 152.9757 15.73264139  4961,6727.712,91.529,350.32800000000015,348.827,0.0
52332.0,STARLINK-3831,PAYLOAD,2022-05-15 14:00:01,15.73368785,0.0001005,53.2149,358.5997,109.5822,229.0027,-0.003663,-0.00489391,0.0,0 STARLINK-3831,1 52332U 22045B   22135.58335648 -.00489391  00000-0 -36630-2 0  9999,2 52332  53.2149 358.5997 0001005 109.5822 229.0027 15.73368785  1309,6727.4140000000025,91.523,349.955,348.603,0.0
52332.0,STARLINK-3831,PAYLOAD,2022-05-15 22:00:00,15.72744445,0.000107,53.2163,356.9498,88.3625,339.2218,0.00087371,0.00121393,0.0,0 STARLINK-3831,1 52332U 22045B   22135.91667824  .00121393  00000-0  87371-3 0  9992,2 52332  53.2163 356.9498 0001070  88.3625 339.2218 15.72744445  5074,6729.194,91.56,351.779,350.339,0.0
52332.0,STARLINK-3831,PAYLOAD,2022-05-16 06:00:02,15.72886764,0.0001174,53.2173,355.2971,109.9081,46.1924,-0.0056633999999999,-0.00720858,0.0,0 STARLINK-3831,1 52332U 22045B   22136.25002315 -.00720858  00000-0 -56634-2 0  9998,2 52332  53.2173 355.2971 0001174 109.9081  46.1924 15.72886764  5129,6728.788000000001,91.551,351.4430000000001,349.86300000000006,0.0
52332.0,STARLINK-3831,PAYLOAD,2022-05-16 14:00:01,15.72375859,0.0001233,53.2175,353.6451,104.1535,140.1225,-0.0057637,-0.00717976,0.0,0 STARLINK-3831,1 52332U 22045B   22136.58334491 -.00717976  00000-0 -57637-2 0  9998,2 52332  53.2175 353.6451 0001233 104.1535 140.1225 15.72375859  1306,6730.246,91.581,352.941,351.281,0.0
52332.0,STARLINK-3831,PAYLOAD,2022-05-16 22:00:00,15.71867036,0.0001101,53.2176,351.9979,91.9985,239.9036,-0.005918,-0.00721048,0.0,0 STARLINK-3831,1 52332U 22045B   22136.91667824 -.00721048  00000-0 -59180-2 0  9994,2 52332  53.2176 351.9979 0001101  91.9985 239.9036 15.71867036  1308,6731.698,91.611,354.30400000000014,352.82199999999995,0.0
52332.0,STARLINK-3831,PAYLOAD,2022-05-17 06:00:00,15.71355857,0.0001029,53.2173,350.3487,102.5629,316.3549,-0.0060242,-0.00718419,0.0,0 STARLINK-3831,1 52332U 22045B   22137.25001157 -.00718419  00000-0 -60242-2 0  9992,2 52332  53.2173 350.3487 0001029 102.5629 316.3549 15.71355857  5288,6733.158,91.641,355.716,354.33,0.0
